{"fetched_at":"2026-07-19T07:04:49.137Z","source":"https://celestrak.org/NORAD/elements/gp.php?GROUP=oneweb&FORMAT=JSON","constellation":"oneweb","records":[{"OBJECT_NAME":"ONEWEB-0233","OBJECT_ID":"2021-045AE","EPOCH":"2026-07-18T10:19:55.217280","CLASSIFICATION_TYPE":"U","MEAN_MOTION":13.15551033,"ECCENTRICITY":0.00022902,"INCLINATION":87.8979,"RA_OF_ASC_NODE":253.0091,"ARG_OF_PERICENTER":103.1217,"MEAN_ANOMALY":257.0169,"EPHEMERIS_TYPE":0,"NORAD_CAT_ID":48795,"ELEMENT_SET_NO":999,"REV_AT_EPOCH":24840,"BSTAR":0.00025196009,"MEAN_MOTION_DOT":0.00000108,"MEAN_MOTION_DDOT":0},{"OBJECT_NAME":"ONEWEB-0190","OBJECT_ID":"2021-045AF","EPOCH":"2026-07-18T13:40:55.408800","CLASSIFICATION_TYPE":"U","MEAN_MOTION":13.15548436,"ECCENTRICITY":0.0002368,"INCLINATION":87.8985,"RA_OF_ASC_NODE":252.9449,"ARG_OF_PERICENTER":113.7755,"MEAN_ANOMALY":246.3624,"EPHEMERIS_TYPE":0,"NORAD_CAT_ID":48796,"ELEMENT_SET_NO":999,"REV_AT_EPOCH":24849,"BSTAR":-0.00019021,"MEAN_MOTION_DOT":-5.9e-7,"MEAN_MOTION_DDOT":0},{"OBJECT_NAME":"ONEWEB-0236","OBJECT_ID":"2021-045AG","EPOCH":"2026-07-18T15:55:33.102912","CLASSIFICATION_TYPE":"U","MEAN_MOTION":13.15549027,"ECCENTRICITY":0.000208,"INCLINATION":87.8975,"RA_OF_ASC_NODE":252.9341,"ARG_OF_PERICENTER":94.4564,"MEAN_ANOMALY":265.6803,"EPHEMERIS_TYPE":0,"NORAD_CAT_ID":48797,"ELEMENT_SET_NO":999,"REV_AT_EPOCH":24839,"BSTAR":0.00014758,"MEAN_MOTION_DOT":6.8e-7,"MEAN_MOTION_DDOT":0},{"OBJECT_NAME":"ONEWEB-0248","OBJECT_ID":"2021-045AH","EPOCH":"2026-07-18T16:13:47.687232","CLASSIFICATION_TYPE":"U","MEAN_MOTION":13.15548787,"ECCENTRICITY":0.0002465,"INCLINATION":87.8992,"RA_OF_ASC_NODE":252.9178,"ARG_OF_PERICENTER":105.5298,"MEAN_ANOMALY":254.6105,"EPHEMERIS_TYPE":0,"NORAD_CAT_ID":48798,"ELEMENT_SET_NO":999,"REV_AT_EPOCH":24855,"BSTAR":0.00042846,"MEAN_MOTION_DOT":0.00000174,"MEAN_MOTION_DDOT":0},{"OBJECT_NAME":"ONEWEB-0225","OBJECT_ID":"2021-045AJ","EPOCH":"2026-07-18T20:24:47.804256","CLASSIFICATION_TYPE":"U","MEAN_MOTION":13.15548632,"ECCENTRICITY":0.0002284,"INCLINATION":87.8987,"RA_OF_ASC_NODE":252.8903,"ARG_OF_PERICENTER":110.4566,"MEAN_ANOMALY":249.681,"EPHEMERIS_TYPE":0,"NORAD_CAT_ID":48799,"ELEMENT_SET_NO":999,"REV_AT_EPOCH":24858,"BSTAR":0.00013682,"MEAN_MOTION_DOT":6.4e-7,"MEAN_MOTION_DDOT":0},{"OBJECT_NAME":"ONEWEB-0215","OBJECT_ID":"2021-045AK","EPOCH":"2026-07-18T16:02:22.949088","CLASSIFICATION_TYPE":"U","MEAN_MOTION":13.15549011,"ECCENTRICITY":0.0002481,"INCLINATION":87.8989,"RA_OF_ASC_NODE":252.911,"ARG_OF_PERICENTER":111.7752,"MEAN_ANOMALY":248.3642,"EPHEMERIS_TYPE":0,"NORAD_CAT_ID":48800,"ELEMENT_SET_NO":999,"REV_AT_EPOCH":24843,"BSTAR":0.00032727,"MEAN_MOTION_DOT":0.00000136,"MEAN_MOTION_DDOT":0},{"OBJECT_NAME":"ONEWEB-0216","OBJECT_ID":"2021-045AL","EPOCH":"2026-07-18T16:16:05.376000","CLASSIFICATION_TYPE":"U","MEAN_MOTION":13.15547748,"ECCENTRICITY":0.0002027,"INCLINATION":87.8988,"RA_OF_ASC_NODE":252.9224,"ARG_OF_PERICENTER":98.3272,"MEAN_ANOMALY":261.8088,"EPHEMERIS_TYPE":0,"NORAD_CAT_ID":48801,"ELEMENT_SET_NO":999,"REV_AT_EPOCH":24844,"BSTAR":0.00023016,"MEAN_MOTION_DOT":9.9e-7,"MEAN_MOTION_DDOT":0},{"OBJECT_NAME":"ONEWEB-0239","OBJECT_ID":"2021-045AM","EPOCH":"2026-07-18T16:22:56.246880","CLASSIFICATION_TYPE":"U","MEAN_MOTION":13.1554794,"ECCENTRICITY":0.0002768,"INCLINATION":87.8982,"RA_OF_ASC_NODE":252.9252,"ARG_OF_PERICENTER":109.9424,"MEAN_ANOMALY":250.2004,"EPHEMERIS_TYPE":0,"NORAD_CAT_ID":48802,"ELEMENT_SET_NO":999,"REV_AT_EPOCH":24848,"BSTAR":0.00033559,"MEAN_MOTION_DOT":0.00000139,"MEAN_MOTION_DDOT":0},{"OBJECT_NAME":"ONEWEB-0249","OBJECT_ID":"2021-060A","EPOCH":"2026-07-18T19:40:14.146752","CLASSIFICATION_TYPE":"U","MEAN_MOTION":13.16591564,"ECCENTRICITY":0.0002173,"INCLINATION":87.9077,"RA_OF_ASC_NODE":222.4947,"ARG_OF_PERICENTER":94.191,"MEAN_ANOMALY":265.9469,"EPHEMERIS_TYPE":0,"NORAD_CAT_ID":48967,"ELEMENT_SET_NO":999,"REV_AT_EPOCH":24377,"BSTAR":0.000025715,"MEAN_MOTION_DOT":2.3e-7,"MEAN_MOTION_DDOT":0},{"OBJECT_NAME":"ONEWEB-0250","OBJECT_ID":"2021-060B","EPOCH":"2026-07-18T11:25:00.499008","CLASSIFICATION_TYPE":"U","MEAN_MOTION":13.25835331,"ECCENTRICITY":0.00030452,"INCLINATION":87.9079,"RA_OF_ASC_NODE":220.2173,"ARG_OF_PERICENTER":83.2202,"MEAN_ANOMALY":276.9281,"EPHEMERIS_TYPE":0,"NORAD_CAT_ID":48968,"ELEMENT_SET_NO":999,"REV_AT_EPOCH":24436,"BSTAR":-0.000055233895,"MEAN_MOTION_DOT":-1.1e-7,"MEAN_MOTION_DDOT":0},{"OBJECT_NAME":"ONEWEB-0252","OBJECT_ID":"2021-060D","EPOCH":"2026-07-18T18:35:16.327392","CLASSIFICATION_TYPE":"U","MEAN_MOTION":13.16595537,"ECCENTRICITY":0.0001882,"INCLINATION":87.9079,"RA_OF_ASC_NODE":222.4956,"ARG_OF_PERICENTER":96.5991,"MEAN_ANOMALY":263.5354,"EPHEMERIS_TYPE":0,"NORAD_CAT_ID":48970,"ELEMENT_SET_NO":999,"REV_AT_EPOCH":24381,"BSTAR":-0.00002946,"MEAN_MOTION_DOT":2e-8,"MEAN_MOTION_DDOT":0},{"OBJECT_NAME":"ONEWEB-0253","OBJECT_ID":"2021-060E","EPOCH":"2026-07-18T18:19:18.954048","CLASSIFICATION_TYPE":"U","MEAN_MOTION":13.16595277,"ECCENTRICITY":0.0002194,"INCLINATION":87.908,"RA_OF_ASC_NODE":222.503,"ARG_OF_PERICENTER":91.2714,"MEAN_ANOMALY":268.8668,"EPHEMERIS_TYPE":0,"NORAD_CAT_ID":48971,"ELEMENT_SET_NO":999,"REV_AT_EPOCH":24374,"BSTAR":-0.0000046101,"MEAN_MOTION_DOT":1.1e-7,"MEAN_MOTION_DDOT":0},{"OBJECT_NAME":"ONEWEB-0254","OBJECT_ID":"2021-060F","EPOCH":"2026-07-18T02:08:05.215200","CLASSIFICATION_TYPE":"U","MEAN_MOTION":13.16594644,"ECCENTRICITY":0.00023338,"INCLINATION":87.9082,"RA_OF_ASC_NODE":222.6354,"ARG_OF_PERICENTER":97.7093,"MEAN_ANOMALY":262.4303,"EPHEMERIS_TYPE":0,"NORAD_CAT_ID":48972,"ELEMENT_SET_NO":999,"REV_AT_EPOCH":24365,"BSTAR":-0.00009179838,"MEAN_MOTION_DOT":-2.2e-7,"MEAN_MOTION_DDOT":0},{"OBJECT_NAME":"ONEWEB-0255","OBJECT_ID":"2021-060G","EPOCH":"2026-07-18T19:27:43.606368","CLASSIFICATION_TYPE":"U","MEAN_MOTION":13.16593291,"ECCENTRICITY":0.0002232,"INCLINATION":87.9075,"RA_OF_ASC_NODE":222.498,"ARG_OF_PERICENTER":97.7296,"MEAN_ANOMALY":262.4089,"EPHEMERIS_TYPE":0,"NORAD_CAT_ID":48973,"ELEMENT_SET_NO":999,"REV_AT_EPOCH":24382,"BSTAR":-0.00026051,"MEAN_MOTION_DOT":-8.7e-7,"MEAN_MOTION_DDOT":0},{"OBJECT_NAME":"ONEWEB-0256","OBJECT_ID":"2021-060H","EPOCH":"2026-07-18T12:47:36.690720","CLASSIFICATION_TYPE":"U","MEAN_MOTION":13.16587678,"ECCENTRICITY":0.0002053,"INCLINATION":87.9075,"RA_OF_ASC_NODE":222.556,"ARG_OF_PERICENTER":94.8908,"MEAN_ANOMALY":265.2457,"EPHEMERIS_TYPE":0,"NORAD_CAT_ID":48974,"ELEMENT_SET_NO":999,"REV_AT_EPOCH":24375,"BSTAR":0.002446,"MEAN_MOTION_DOT":0.00000948,"MEAN_MOTION_DDOT":0},{"OBJECT_NAME":"ONEWEB-0257","OBJECT_ID":"2021-060J","EPOCH":"2026-07-18T19:02:38.730912","CLASSIFICATION_TYPE":"U","MEAN_MOTION":13.16593954,"ECCENTRICITY":0.000207,"INCLINATION":87.9076,"RA_OF_ASC_NODE":222.4929,"ARG_OF_PERICENTER":97.5363,"MEAN_ANOMALY":262.6003,"EPHEMERIS_TYPE":0,"NORAD_CAT_ID":48975,"ELEMENT_SET_NO":999,"REV_AT_EPOCH":24374,"BSTAR":-0.00013488,"MEAN_MOTION_DOT":-3.9e-7,"MEAN_MOTION_DDOT":0}]}
