ONEWEB-0233             
1 48795U 21045AE  26199.43050020  .00000108  00000+0  25196-3 0  9990
2 48795  87.8979 253.0091 0002290 103.1217 257.0169 13.15551033248406
ONEWEB-0190             
1 48796U 21045AF  26199.57008575 -.00000059  00000+0 -19021-3 0  9991
2 48796  87.8985 252.9449 0002368 113.7755 246.3624 13.15548436248498
ONEWEB-0236             
1 48797U 21045AG  26199.66357758  .00000068  00000+0  14758-3 0  9992
2 48797  87.8975 252.9341 0002080  94.4564 265.6803 13.15549027248392
ONEWEB-0248             
1 48798U 21045AH  26199.67624638  .00000174  00000+0  42846-3 0  9995
2 48798  87.8992 252.9178 0002465 105.5298 254.6105 13.15548787248558
ONEWEB-0225             
1 48799U 21045AJ  26199.85055329  .00000064  00000+0  13682-3 0  9995
2 48799  87.8987 252.8903 0002284 110.4566 249.6810 13.15548632248589
ONEWEB-0215             
1 48800U 21045AK  26199.66832117  .00000136  00000+0  32727-3 0  9996
2 48800  87.8989 252.9110 0002481 111.7752 248.3642 13.15549011248430
ONEWEB-0216             
1 48801U 21045AL  26199.67784000  .00000099  00000+0  23016-3 0  9994
2 48801  87.8988 252.9224 0002027  98.3272 261.8088 13.15547748248449
ONEWEB-0239             
1 48802U 21045AM  26199.68259545  .00000139  00000+0  33559-3 0  9995
2 48802  87.8982 252.9252 0002768 109.9424 250.2004 13.15547940248483
ONEWEB-0249             
1 48967U 21060A   26199.81960818  .00000023  00000+0  25715-4 0  9999
2 48967  87.9077 222.4947 0002173  94.1910 265.9469 13.16591564243776
ONEWEB-0250             
1 48968U 21060B   26199.47570022 -.00000011  00000+0 -55234-4 0  9994
2 48968  87.9079 220.2173 0003045  83.2202 276.9281 13.25835331244361
ONEWEB-0252             
1 48970U 21060D   26199.77449453  .00000002  00000+0 -29460-4 0  9994
2 48970  87.9079 222.4956 0001882  96.5991 263.5354 13.16595537243819
ONEWEB-0253             
1 48971U 21060E   26199.76341382  .00000011  00000+0 -46101-5 0  9998
2 48971  87.9080 222.5030 0002194  91.2714 268.8668 13.16595277243747
ONEWEB-0254             
1 48972U 21060F   26199.08894925 -.00000022  00000+0 -91798-4 0  9994
2 48972  87.9082 222.6354 0002333  97.7093 262.4303 13.16594644243659
ONEWEB-0255             
1 48973U 21060G   26199.81092137 -.00000087  00000+0 -26051-3 0  9991
2 48973  87.9075 222.4980 0002232  97.7296 262.4089 13.16593291243825
ONEWEB-0256             
1 48974U 21060H   26199.53306355  .00000948  00000+0  24460-2 0  9996
2 48974  87.9075 222.5560 0002053  94.8908 265.2457 13.16587678243754
ONEWEB-0257             
1 48975U 21060J   26199.79350383 -.00000039  00000+0 -13488-3 0  9997
2 48975  87.9076 222.4929 0002070  97.5363 262.6003 13.16593954243749
